OBJECT_NAME,OBJECT_ID,EPOCH,MEAN_MOTION,ECCENTRICITY,INCLINATION,RA_OF_ASC_NODE,ARG_OF_PERICENTER,MEAN_ANOMALY,EPHEMERIS_TYPE,CLASSIFICATION_TYPE,NORAD_CAT_ID,ELEMENT_SET_NO,REV_AT_EPOCH,BSTAR,MEAN_MOTION_DOT,MEAN_MOTION_DDOT
BEIDOU-2 IGSO-5 (C10),2011-073A,2026-06-14T23:32:12.407424,1.00273141,.01139,47.6824,271.5735,221.6334,214.8644,0,U,37948,999,5311,0,-.164E-5,0
LUCH 5A (SDCM/PRN 140),2011-074B,2026-06-15T12:12:38.850336,1.00270016,.0002163,8.7499,73.8320,22.2945,157.7802,0,U,37951,999,5303,0,-.54E-6,0
BEIDOU-2 G5 (C05),2012-008A,2026-06-15T11:37:41.741760,1.00271354,.0009129,3.5686,69.7030,272.7924,154.3492,0,U,38091,999,5235,0,.58E-6,0
BEIDOU-2 M3 (C11),2012-018A,2026-06-13T23:12:21.862080,1.86229866,.00200941,55.7612,304.9843,274.1342,85.6161,0,U,38250,999,9588,0,-.71E-6,0
BEIDOU-2 M4 (C12),2012-018B,2026-06-13T08:41:38.889888,1.86229521,.00112871,55.6617,304.2191,276.0779,83.7740,0,U,38251,999,9587,0,-.7E-6,0
SES-5 (EGNOS/PRN 136),2012-036A,2026-06-15T07:57:04.129920,1.00271212,.0001778,0.0492,312.6758,132.0596,303.1274,0,U,38652,999,4443,0,.37E-6,0
BEIDOU-2 M6 (C14),2012-050B,2026-06-13T01:43:42.616992,1.86230840,.0013772,56.5408,63.0305,356.7295,3.2873,0,U,38775,999,9323,0,-.56E-6,0
GSAT-10 (GAGAN/PRN 128),2012-051B,2026-06-15T11:44:41.072064,1.00269977,.0007755,0.0850,263.0496,184.1119,75.7949,0,U,38779,999,5008,0,-.162E-5,0
GPS BIIF-3  (PRN 24),2012-053A,2026-06-15T07:43:34.504032,2.00567382,.0180191,53.5856,143.6757,65.7282,296.1113,0,U,38833,999,9940,0,.42E-6,0
GSAT0103 (GALILEO-FM3),2012-055A,2026-06-14T13:01:25.557888,1.70473336,.00049172,55.8050,101.6182,305.1909,54.7190,0,U,38857,999,8496,0,-.11E-6,0
BEIDOU-2 G6 (C02),2012-059A,2026-06-15T08:19:39.465120,1.00272283,.0009603,4.4156,73.5391,324.3705,74.6716,0,U,38953,999,4989,0,-.176E-5,0
LUCH 5B (SDCM/PRN 125),2012-061A,2026-06-14T23:17:40.848288,1.00272265,.0002552,10.4768,49.9003,149.9655,36.5384,0,U,38977,999,4958,0,-.141E-5,0
COSMOS 2485 (747),2013-019A,2026-06-15T00:47:27.248064,2.13103342,.0023249,65.4185,73.6770,234.2304,125.5797,0,U,39155,999,10223,0,-.25E-6,0
GPS BIIF-4  (PRN 27),2013-023A,2026-06-14T16:33:59.172480,2.00563387,.01415422,54.5060,269.0754,51.0316,310.2489,0,U,39166,999,9583,0,-.18E-6,0
IRNSS-1A,2013-034A,2026-06-09T14:20:49.169184,1.00272948,.00174117,35.7049,63.9797,184.2474,279.8453,0,U,39199,999,4729,0,.7E-6,0
GPS BIIF-5  (PRN 30),2014-008A,2026-06-15T04:34:16.714272,2.00559604,.008423,53.6543,149.4010,231.2485,127.9755,0,U,39533,999,8964,0,.51E-6,0
ASTRA 5B (EGNOS/PRN 123),2014-011B,2026-06-15T11:27:34.710912,1.00272670,.0001737,0.0461,337.3565,96.3288,25.4671,0,U,39617,999,4465,0,.14E-5,0
COSMOS 2492 (754),2014-012A,2026-06-14T01:16:45.888096,2.13103207,.00104533,65.2995,314.0428,325.1473,34.7685,0,U,39620,999,9517,0,-.53E-6,0
IRNSS-1B,2014-017A,2026-06-14T18:30:17.178624,1.00275602,.00230633,28.9259,240.4448,189.5629,165.7473,0,U,39635,999,4476,0,.132E-5,0
LUCH 5V (SDCM/PRN 141),2014-023A,2026-06-15T06:39:56.272896,1.00275159,.0001845,5.1267,69.7591,47.1152,341.3603,0,U,39727,999,4434,0,-.269E-5,0
GPS BIIF-6  (PRN 06),2014-026A,2026-06-14T23:13:00.495840,2.00561046,.0038185,56.4994,331.6038,326.5886,33.1644,0,U,39741,999,8849,0,-.79E-6,0
COSMOS 2500 (755),2014-032A,2026-06-13T06:49:49.213632,2.13106047,.0007281,65.2352,313.8168,184.1744,175.8059,0,U,40001,999,9337,0,-.51E-6,0
GPS BIIF-7  (PRN 09),2014-045A,2026-06-15T01:25:07.039200,2.00558179,.0033223,55.3519,88.5497,118.2762,242.0482,0,U,40105,999,8603,0,-.28E-6,0
GSAT0201 (GALILEO 5),2014-050A,2026-06-13T15:27:24.646464,1.85519952,.16739532,48.8793,273.5817,179.2575,181.0766,0,U,40128,999,7825,0,-.43E-6,0
GSAT0202 (GALILEO 6),2014-050B,2026-06-14T23:27:41.032800,1.85520518,.1675464,48.8947,272.6125,180.0339,180.0074,0,U,40129,999,8044,0,-.39E-6,0
IRNSS-1C,2014-061A,2026-06-14T20:20:39.429312,1.00269703,.00227268,6.5121,88.9752,2.1523,200.1682,0,U,40269,999,4266,0,-.16E-5,0
GPS BIIF-8  (PRN 03),2014-068A,2026-06-12T22:26:25.265760,2.00575830,.00669623,56.9847,31.1185,70.4280,290.3526,0,U,40294,999,8512,0,-.61E-6,0
COSMOS 2501 (702K),2014-075A,2026-06-13T01:51:27.271008,2.13101424,.00225676,63.6161,190.5143,212.1681,147.7675,0,U,40315,999,8976,0,.117E-5,0
GPS BIIF-9  (PRN 26),2015-013A,2026-06-13T13:44:01.627584,2.00551527,.01094304,53.1681,204.3272,40.1118,320.7798,0,U,40534,999,8175,0,.93E-6,0
GSAT0203 (GALILEO 7),2015-017A,2026-06-15T10:52:25.074336,1.70475984,.0002092,56.7863,341.6427,278.6810,81.2938,0,U,40544,999,6917,0,-.83E-6,0
GSAT0204 (GALILEO 8),2015-017B,2026-06-14T12:51:23.627232,1.70475571,.00019104,56.7953,341.6863,248.0709,111.9109,0,U,40545,999,3220,0,-.79E-6,0
